[
    {
        "Altitude(m)": 553490.066490218,
        "Argument of Periapsis(deg)": 0.019868973332140504,
        "Eccentricity": 0.0,
        "Inclination(deg)": 53.0,
        "Latitude(deg)": 10.606539536927402,
        "Longitude(deg)": 44.55216171215114,
        "Mean Anomaly(deg)": -193.36152139726724,
        "RAAN(deg)": 334.97043010558406,
        "Satellite Name": "Starlink Shell 1 1482",
        "Satellite Number": 1482,
        "Semi-Major Axis(m)": 6931778.249405717,
        "Time(s)": 570
    },
    {
        "Altitude(m)": 553498.065189804,
        "Argument of Periapsis(deg)": 0.02021755181165174,
        "Eccentricity": 0.0,
        "Inclination(deg)": 53.0,
        "Latitude(deg)": 10.10736282097278,
        "Longitude(deg)": 44.90013616734682,
        "Mean Anomaly(deg)": -192.73469019371046,
        "RAAN(deg)": 334.9699113355066,
        "Satellite Name": "Starlink Shell 1 1482",
        "Satellite Number": 1482,
        "Semi-Major Axis(m)": 6931778.249405717,
        "Time(s)": 580
    },
    {
        "Altitude(m)": 553508.7496230048,
        "Argument of Periapsis(deg)": 0.020566130291162974,
        "Eccentricity": 0.0,
        "Inclination(deg)": 53.0,
        "Latitude(deg)": 9.607718265191718,
        "Longitude(deg)": 45.24690761850226,
        "Mean Anomaly(deg)": -192.10785899015386,
        "RAAN(deg)": 334.9693925654292,
        "Satellite Name": "Starlink Shell 1 1482",
        "Satellite Number": 1482,
        "Semi-Major Axis(m)": 6931778.249405717,
        "Time(s)": 590
    },
    {
        "Altitude(m)": 553522.1377650477,
        "Argument of Periapsis(deg)": 0.020914708770674213,
        "Eccentricity": 0.0,
        "Inclination(deg)": 53.0,
        "Latitude(deg)": 9.107631155261997,
        "Longitude(deg)": 45.59253860280815,
        "Mean Anomaly(deg)": -191.4810277865971,
        "RAAN(deg)": 334.96887379535167,
        "Satellite Name": "Starlink Shell 1 1482",
        "Satellite Number": 1482,
        "Semi-Major Axis(m)": 6931778.249405717,
        "Time(s)": 600
    },
    {
        "Altitude(m)": 553538.2463351537,
        "Argument of Periapsis(deg)": 0.021263287250185448,
        "Eccentricity": 0.0,
        "Inclination(deg)": 53.0,
        "Latitude(deg)": 8.607126536223609,
        "Longitude(deg)": 45.93709116076104,
        "Mean Anomaly(deg)": -190.85419658304042,
        "RAAN(deg)": 334.96835502527415,
        "Satellite Name": "Starlink Shell 1 1482",
        "Satellite Number": 1482,
        "Semi-Major Axis(m)": 6931778.249405717,
        "Time(s)": 610
    },
    {
        "Altitude(m)": 553557.0907854415,
        "Argument of Periapsis(deg)": 0.021611865729696686,
        "Eccentricity": 0.0,
        "Inclination(deg)": 53.0,
        "Latitude(deg)": 8.106229226179657,
        "Longitude(deg)": 46.28062736685968,
        "Mean Anomaly(deg)": -190.22736537948367,
        "RAAN(deg)": 334.96783625519674,
        "Satellite Name": "Starlink Shell 1 1482",
        "Satellite Number": 1482,
        "Semi-Major Axis(m)": 6931778.249405717,
        "Time(s)": 620
    },
    {
        "Altitude(m)": 553578.685290472,
        "Argument of Periapsis(deg)": 0.02196044420920792,
        "Eccentricity": 0.0,
        "Inclination(deg)": 53.0,
        "Latitude(deg)": 7.604963829784435,
        "Longitude(deg)": 46.62320817923531,
        "Mean Anomaly(deg)": -189.60053417592698,
        "RAAN(deg)": 334.9673174851193,
        "Satellite Name": "Starlink Shell 1 1482",
        "Satellite Number": 1482,
        "Semi-Major Axis(m)": 6931778.249405717,
        "Time(s)": 630
    },
    {
        "Altitude(m)": 553603.0427374303,
        "Argument of Periapsis(deg)": 0.02230902268871916,
        "Eccentricity": 0.0,
        "Inclination(deg)": 53.0,
        "Latitude(deg)": 7.103354751533995,
        "Longitude(deg)": 46.96489481064528,
        "Mean Anomaly(deg)": -188.97370297237023,
        "RAAN(deg)": 334.96679871504176,
        "Satellite Name": "Starlink Shell 1 1482",
        "Satellite Number": 1482,
        "Semi-Major Axis(m)": 6931778.249405717,
        "Time(s)": 640
    },
    {
        "Altitude(m)": 553630.1747169498,
        "Argument of Periapsis(deg)": 0.022657601168230398,
        "Eccentricity": 0.0,
        "Inclination(deg)": 53.0,
        "Latitude(deg)": 6.60142620886588,
        "Longitude(deg)": 47.30574757791471,
        "Mean Anomaly(deg)": -188.3468717688135,
        "RAAN(deg)": 334.9662799449643,
        "Satellite Name": "Starlink Shell 1 1482",
        "Satellite Number": 1482,
        "Semi-Major Axis(m)": 6931778.249405717,
        "Time(s)": 650
    },
    {
        "Altitude(m)": 553660.0915145512,
        "Argument of Periapsis(deg)": 0.023006179647741636,
        "Eccentricity": 0.0,
        "Inclination(deg)": 53.0,
        "Latitude(deg)": 6.099202245084026,
        "Longitude(deg)": 47.64582643225754,
        "Mean Anomaly(deg)": -187.7200405652568,
        "RAAN(deg)": 334.96576117488684,
        "Satellite Name": "Starlink Shell 1 1482",
        "Satellite Number": 1482,
        "Semi-Major Axis(m)": 6931778.249405717,
        "Time(s)": 660
    },
    {
        "Altitude(m)": 553692.8021027632,
        "Argument of Periapsis(deg)": 0.023354758127252868,
        "Eccentricity": 0.0,
        "Inclination(deg)": 53.0,
        "Latitude(deg)": 5.596706742120329,
        "Longitude(deg)": 47.985191489506434,
        "Mean Anomaly(deg)": -187.09320936170016,
        "RAAN(deg)": 334.9652424048093,
        "Satellite Name": "Starlink Shell 1 1482",
        "Satellite Number": 1482,
        "Semi-Major Axis(m)": 6931778.249405717,
        "Time(s)": 670
    },
    {
        "Altitude(m)": 553728.3141338696,
        "Argument of Periapsis(deg)": 0.023703336606764106,
        "Eccentricity": 0.0,
        "Inclination(deg)": 53.0,
        "Latitude(deg)": 5.093963433141491,
        "Longitude(deg)": 48.32390204738107,
        "Mean Anomaly(deg)": -186.4663781581433,
        "RAAN(deg)": 334.9647236347319,
        "Satellite Name": "Starlink Shell 1 1482",
        "Satellite Number": 1482,
        "Semi-Major Axis(m)": 6931778.249405717,
        "Time(s)": 680
    },
    {
        "Altitude(m)": 553766.6339333268,
        "Argument of Periapsis(deg)": 0.024051915086275345,
        "Eccentricity": 0.0,
        "Inclination(deg)": 53.0,
        "Latitude(deg)": 4.5909959150175785,
        "Longitude(deg)": 48.66201711554631,
        "Mean Anomaly(deg)": -185.83954695458667,
        "RAAN(deg)": 334.9642048646544,
        "Satellite Name": "Starlink Shell 1 1482",
        "Satellite Number": 1482,
        "Semi-Major Axis(m)": 6931778.249405717,
        "Time(s)": 690
    },
    {
        "Altitude(m)": 553807.7664938427,
        "Argument of Periapsis(deg)": 0.024400493565786583,
        "Eccentricity": 0.0,
        "Inclination(deg)": 53.0,
        "Latitude(deg)": 4.087827660660844,
        "Longitude(deg)": 48.99959594559109,
        "Mean Anomaly(deg)": -185.21271575102998,
        "RAAN(deg)": 334.96368609457693,
        "Satellite Name": "Starlink Shell 1 1482",
        "Satellite Number": 1482,
        "Semi-Major Axis(m)": 6931778.249405717,
        "Time(s)": 700
    },
    {
        "Altitude(m)": 553851.7154701131,
        "Argument of Periapsis(deg)": 0.024749072045297815,
        "Eccentricity": 0.0,
        "Inclination(deg)": 53.0,
        "Latitude(deg)": 3.584482031246275,
        "Longitude(deg)": 49.33669704805827,
        "Mean Anomaly(deg)": -184.58588454747326,
        "RAAN(deg)": 334.9631673244995,
        "Satellite Name": "Starlink Shell 1 1482",
        "Satellite Number": 1482,
        "Semi-Major Axis(m)": 6931778.249405717,
        "Time(s)": 710
    },
    {
        "Altitude(m)": 553898.4831742161,
        "Argument of Periapsis(deg)": 0.025097650524809053,
        "Eccentricity": 0.0,
        "Inclination(deg)": 53.0,
        "Latitude(deg)": 3.0809822883276192,
        "Longitude(deg)": 49.67337872227919,
        "Mean Anomaly(deg)": -183.95905334391645,
        "RAAN(deg)": 334.962648554422,
        "Satellite Name": "Starlink Shell 1 1482",
        "Satellite Number": 1482,
        "Semi-Major Axis(m)": 6931778.249405717,
        "Time(s)": 720
    },
    {
        "Altitude(m)": 553948.0705717027,
        "Argument of Periapsis(deg)": 0.02544622900432029,
        "Eccentricity": 0.0,
        "Inclination(deg)": 53.0,
        "Latitude(deg)": 2.57735160586002,
        "Longitude(deg)": 50.009699586144684,
        "Mean Anomaly(deg)": -183.3322221403598,
        "RAAN(deg)": 334.9621297843445,
        "Satellite Name": "Starlink Shell 1 1482",
        "Satellite Number": 1482,
        "Semi-Major Axis(m)": 6931778.249405717,
        "Time(s)": 730
    },
    {
        "Altitude(m)": 554000.477278335,
        "Argument of Periapsis(deg)": 0.02579480748383153,
        "Eccentricity": 0.0,
        "Inclination(deg)": 53.0,
        "Latitude(deg)": 2.073613082136588,
        "Longitude(deg)": 50.345717592945945,
        "Mean Anomaly(deg)": -182.70539093680307,
        "RAAN(deg)": 334.9616110142671,
        "Satellite Name": "Starlink Shell 1 1482",
        "Satellite Number": 1482,
        "Semi-Major Axis(m)": 6931778.249405717,
        "Time(s)": 740
    },
    {
        "Altitude(m)": 554055.7015575106,
        "Argument of Periapsis(deg)": 0.026143385963342765,
        "Eccentricity": 0.0,
        "Inclination(deg)": 53.0,
        "Latitude(deg)": 1.5697897516569042,
        "Longitude(deg)": 50.68149056103726,
        "Mean Anomaly(deg)": -182.0785597332463,
        "RAAN(deg)": 334.96109224418956,
        "Satellite Name": "Starlink Shell 1 1482",
        "Satellite Number": 1482,
        "Semi-Major Axis(m)": 6931778.249405717,
        "Time(s)": 750
    }
]